1 19946U 63014EU  10203.53725096 +.00000016 +00000-0 +10000-3 0  9997
2 19946 085.8421 049.3578 2159962 098.8953 286.0851 08.77205112681942
1 19946U 63014EU  10204.10744575  .00000016  00000-0  10000-3 0  9994
2 19946 085.8427 049.2633 2160592 098.2879 286.7092 08.77205762681991
1 19946U 63014EU  10205.01975078 +.00000016 +00000-0 +10000-3 0  9999
2 19946 085.8424 049.1085 2160614 097.2738 287.7036 08.77206064682071
1 19946U 63014EU  10206.04609336  .00000016  00000-0  10000-3 0  9994
2 19946 085.8439 048.9322 2161952 096.0688 288.8699 08.77207590682167
1 19946U 63014EU  10207.07243994  .00000016  00000-0  10000-3 0  9992
2 19946 085.8442 048.7566 2162286 094.9238 290.0109 08.77208065682257
1 19946U 63014EU  10207.52858794 +.00000016 +00000-0 +10000-3 0  9992
2 19946 085.8436 048.6802 2162189 094.4085 290.5034 08.77208164682295
1 19946U 63014EU  10208.55492249  .00000016  00000-0  10000-3 0  9995
2 19946 085.8428 048.5070 2162427 093.2598 291.6069 08.77208415682382
1 19946U 63014EU  10209.01106906 +.00000016 +00000-0 +10000-3 0  9999
2 19946 085.8424 048.4255 2162954 092.7679 292.0839 08.77209064682427
1 19946U 63014EU  10210.03739647  .00000016  00000-0  10000-3 0  9997
2 19946 085.8411 048.2525 2163071 091.6080 293.1792 08.77209622682516
1 19946U 63014EU  10210.49354051 +.00000016 +00000-0 +10000-3 0  9999
2 19946 085.8410 048.1757 2163080 091.0904 293.6618 08.77209625682559
1 19946U 63014EU  10211.06372121  .00000016  00000-0  10000-3 0  9991
2 19946 085.8404 048.0795 2163514 090.4692 294.2532 08.77210041682604
1 19946U 63014EU  10211.51986325 +.00000016 +00000-0 +10000-3 0  9998
2 19946 085.8417 048.0011 2163519 089.9514 294.7301 08.77210011682640
1 19946U 63014EU  10212.54618390  .00000016  00000-0  10000-3 0  9996
2 19946 085.8421 047.8269 2163946 088.8102 295.7946 08.77210468682734
1 19946U 63014EU  10213.57250011 +.00000016 +00000-0 +10000-3 0  9992
2 19946 085.8421 047.6518 2164087 087.6475 296.8592 08.77210673682823
1 19946U 63014EU  10214.48477975 +.00000016 +00000-0 +10000-3 0  9993
2 19946 085.8417 047.4972 2164247 086.6346 297.7890 08.77210870682903
1 19946U 63014EU  10215.51108989  .00000016  00000-0  10000-3 0  9994
2 19946 085.8419 047.3223 2164363 085.4823 298.8298 08.77211117682997
1 19946U 63014EU  10215.51108989 +.00000016 +00000-0 +10000-3 0  9994
2 19946 085.8419 047.3223 2164363 085.4823 298.8298 08.77211117682997
1 19946U 63014EU  10216.53739723  .00000016  00000-0  10000-3 0  9993
2 19946 085.8423 047.1474 2164370 084.3169 299.8700 08.77211319683081
1 19946U 63014EU  10216.87949921 +.00000016 +00000-0 +10000-3 0  9993
2 19946 085.8445 047.0911 2164378 083.9447 300.2014 08.77211087683113
1 19946U 63014EU  10217.56370259  .00000016  00000-0  10000-3 0  9992
2 19946 085.8447 046.9745 2164468 083.1791 300.8828 08.77211115683179
1 19946U 63014EU  10218.93210335  .00000016  00000-0  10000-3 0  9992
2 19946 085.8456 046.7429 2164705 081.6507 302.2287 08.77211545683293
1 19946U 63014EU  10218.93210335 +.00000016 +00000-0 +10000-3 0  9992
2 19946 085.8456 046.7429 2164705 081.6507 302.2287 08.77211545683293
1 19946U 63014EU  10219.50226748 +.00000016 +00000-0 +10000-3 0  9991
2 19946 085.8454 046.6431 2164841 081.0356 302.7702 08.77212279683348
1 19946U 63014EU  10219.95839791  .00000016  00000-0  10000-3 0  9998
2 19946 085.8441 046.5645 2165027 080.5338 303.2034 08.77212176683385
1 19946U 63014EU  10220.52856220 +.00000016 +00000-0 +10000-3 0  9999
2 19946 085.8441 046.4669 2165003 079.8706 303.7750 08.77212442683436
1 19946U 63014EU  10220.98469342  .00000016  00000-0  10000-3 0  9994
2 19946 085.8431 046.3890 2165012 079.3575 304.2184 08.77212407683471
1 19946U 63014EU  10221.55485626 +.00000016 +00000-0 +10000-3 0  9991
2 19946 085.8445 046.2919 2165057 078.7062 304.7775 08.77212589683528
1 19946U 63014EU  10222.01098595  .00000016  00000-0  10000-3 0  9998
2 19946 085.8414 046.2130 2165133 078.1983 305.2123 08.77212472683568
1 19946U 63014EU  10222.58114731 +.00000016 +00000-0 +10000-3 0  9991
2 19946 085.8429 046.1155 2165055 077.5573 305.7622 08.77212870683618
1 19946U 63014EU  10223.03727392  .00000016  00000-0  10000-3 0  9995
2 19946 085.8425 046.0386 2165054 077.0408 306.1939 08.77212806683659
1 19946U 63014EU  10223.94952639 +.00000016 +00000-0 +10000-3 0  9999
2 19946 085.8411 045.8834 2164819 076.0241 307.0490 08.77213201683732
1 19946U 63014EU  10224.51968437  .00000016  00000-0  10000-3 0  9996
2 19946 085.8405 045.7857 2164744 075.3888 307.5852 08.77213509683788
1 19946U 63014EU  10224.51968437 +.00000016 +00000-0 +10000-3 0  9996
2 19946 085.8405 045.7857 2164744 075.3888 307.5852 08.77213509683788
1 19946U 63014EU  10225.54596539  .00000016  00000-0  10000-3 0  9990
2 19946 085.8403 045.6102 2164523 074.2355 308.5426 08.77213571683877
1 19946U 63014EU  10226.45821364 +.00000016 +00000-0 +10000-3 0  9998
2 19946 085.8393 045.4557 2164197 073.2203 309.3829 08.77213696683958
1 19946U 63014EU  10227.02836587  .00000016  00000-0  10000-3 0  9995
2 19946 085.8391 045.3590 2164107 072.5745 309.9063 08.77213754684004
1 19946U 63014EU  10227.48448871 +.00000015 +00000-0 +10000-3 0  9999
2 19946 085.8404 045.2807 2163985 072.0646 310.3261 08.77213940684044
1 19946U 63014EU  10228.51076206  .00000015  00000-0  10000-3 0  9993
2 19946 085.8392 045.1060 2163743 070.9150 311.2556 08.77213812684134
1 19946U 63014EU  10229.53703573  .00000015  00000-0  10000-3 0  9990
2 19946 085.8395 044.9300 2163380 069.7488 312.1961 08.77213596684227
1 19946U 63014EU  10230.90539508  .00000015  00000-0  10000-3 0  9998
2 19946 085.8370 044.6965 2163126 068.2109 313.4240 08.77213618684348
1 19946U 63014EU  10230.90539508 +.00000015 +00000-0 +10000-3 0  9998
2 19946 085.8370 044.6965 2163126 068.2109 313.4240 08.77213618684348
1 19946U 63014EU  10231.93166163 +.00000015 +00000-0 +10000-3 0  9995
2 19946 085.8378 044.5215 2162816 067.0572 314.3359 08.77213611684433
1 19946U 63014EU  10232.50181010  .00000015  00000-0  10000-3 0  9997
2 19946 085.8385 044.4249 2162567 066.4189 314.8451 08.77213947684482
1 19946U 63014EU  10232.95792591 +.00000015 +00000-0 +10000-3 0  9998
2 19946 085.8373 044.3474 2162457 065.9062 315.2407 08.77213802684521
1 19946U 63014EU  10233.52807281  .00000015  00000-0  10000-3 0  9995
2 19946 085.8386 044.2496 2162179 065.2659 315.7455 08.77213876684578
1 19946U 63014EU  10234.44030469 +.00000015 +00000-0 +10000-3 0  9993
2 19946 085.8375 044.0941 2161744 064.2289 316.5537 08.77214484684659
1 19946U 63014EU  10235.46656199  .00000015  00000-0  10000-3 0  9990
2 19946 085.8384 043.9210 2161326 063.0874 317.4363 08.77215037684741
1 19946U 63014EU  10236.49281601  .00000015  00000-0  10000-3 0  9996
2 19946 085.8369 043.7457 2161032 061.9268 318.3139 08.77214692684830
1 19946U 63014EU  10237.51907175  .00000015  00000-0  10000-3 0  9991
2 19946 085.8376 043.5714 2160599 060.7729 319.1947 08.77214524684928
1 19946U 63014EU  10238.43129801 +.00000015 +00000-0 +10000-3 0  9995
2 19946 085.8376 043.4150 2160081 059.7410 319.9807 08.77214778685006
1 19946U 63014EU  10239.34351955  .00000015  00000-0  10000-3 0  9993
2 19946 085.8309 043.2562 2159626 058.6948 320.7567 08.77214565685089
1 19946U 63014EU  10239.45754786 +.00000014 +00000-0 +10000-3 0  9993
2 19946 085.8310 043.2358 2159237 058.5902 320.8416 08.77214894685091
1 19946U 63014EU  10240.48379547  .00000014  00000-0  10000-3 0  9996
2 19946 085.8305 043.0616 2159026 057.4343 321.6997 08.77214813685187
1 19946U 63014EU  10240.93990545  .00000014  00000-0  10000-3 0  9993
2 19946 085.8300 042.9839 2158529 056.8738 322.1071 08.77214500685222
1 19946U 63014EU  10241.51004485 +.00000014 +00000-0 +10000-3 0  9997
2 19946 085.8299 042.8871 2158272 056.2418 322.5819 08.77214326685273
1 19946U 63014EU  10242.42226383  .00000014  00000-0  10000-3 0  9991
2 19946 085.8305 042.7325 2158066 055.2222 323.3374 08.77214570685352
1 19946U 63014EU  10243.44850749  .00000014  00000-0  10000-3 0  9993
2 19946 085.8280 042.5564 2157267 054.0671 324.1794 08.77214466685443
1 19946U 63014EU  10243.90461479 +.00000014 +00000-0 +10000-3 0  9992
2 19946 085.8278 042.4795 2156976 053.5080 324.5788 08.77214306685483
1 19946U 63014EU  10244.47475136  .00000014  00000-0  10000-3 0  9990
2 19946 085.8329 042.3854 2156603 052.8720 325.0465 08.77214043685537
1 19946U 63014EU  10245.50099175  .00000014  00000-0  10000-3 0  9990
2 19946 085.8330 042.2105 2155974 051.7276 325.8707 08.77213830685621
1 19946U 63014EU  10246.41320627 +.00000014 +00000-0 +10000-3 0  9990
2 19946 085.8358 042.0586 2155442 050.6969 326.6184 08.77214175685709
1 19946U 63014EU  10247.43944355  .00000014  00000-0  10000-3 0  9993
2 19946 085.8334 041.8831 2154738 049.5545 327.4326 08.77214177685795
1 19946U 63014EU  10248.46567998  .00000013  00000-0  10000-3 0  9990
2 19946 085.8346 041.7104 2154197 048.4013 328.2503 08.77213984685888
1 19946U 63014EU  10249.37788956 +.00000013 +00000-0 +10000-3 0  9990
2 19946 085.8373 041.5587 2153646 047.3275 329.0098 08.77214333685963
1 19946U 63014EU  10250.40412358  .00000013  00000-0  10000-3 0  9996
2 19946 085.8347 041.3820 2152908 046.2161 329.7989 08.77214620686050
1 19946U 63014EU  10251.43035328  .00000013  00000-0  10000-3 0  9998
2 19946 085.8338 041.2062 2152501 045.1219 330.5608 08.77214571686141
1 19946U 63014EU  10252.45658432  .00000013  00000-0  10000-3 0  9998
2 19946 085.8352 041.0328 2151967 043.9658 331.3648 08.77214447686233
1 19946U 63014EU  10253.48281439  .00000013  00000-0  10000-3 0  9991
2 19946 085.8279 040.8531 2150350 042.5673 332.3139 08.77213793686320
1 19946U 63014EU  10254.39502199 +.00000013 +00000-0 +10000-3 0  9991
2 19946 085.8293 040.6991 2149833 041.5235 333.0455 08.77213875686400
1 19946U 63014EU  10255.42125007  .00000013  00000-0  10000-3 0  9995
2 19946 085.8296 040.5238 2149032 040.4310 333.7933 08.77213188686493
1 19946U 63014EU  10256.44747844  .00000012  00000-0  10000-3 0  9996
2 19946 085.8309 040.3524 2148789 039.2832 334.5692 08.77211873686587
